NUSAT-1 (FRESCO)        
1 41557U 16033B   22254.07914645  .00014425  00000+0  40664-3 0  9994
2 41557  97.3898 352.0342 0011702  74.2061  49.3699 15.36459816350521
BEESAT-4                
1 41619U 16040W   22254.13099865  .00016451  00000+0  51551-3 0  9994
2 41619  97.2085 302.5517 0009888 160.2767 199.8860 15.33103741333849
CAS-2T & KS-1Q          
1 41847U 16066G   22253.81879335  .00000420  00000+0  73912-4 0  9992
2 41847  98.5437 318.3700 0362539 314.6440  42.5706 14.38714800306621
NAYIF-1 (EO-88)         
1 42017U 17008BX  22253.13668421  .00017344  00000+0  48184-3 0  9991
2 42017  97.2622 318.1244 0003159 310.1355  49.9613 15.36935166310071
ZHUHAI-1 02 (CAS-4B)    
1 42759U 17034B   22254.18905883  .00003685  00000+0  22112-3 0  9991
2 42759  43.0153 219.9434 0008033 109.2769  11.1283 15.12400346289332
ZHUHAI-1 01 (CAS-4A)    
1 42761U 17034D   22254.08298017  .00003838  00000+0  22925-3 0  9999
2 42761  43.0161 219.2540 0008299 110.7197 343.1710 15.12485326289324
MAX VALIER SAT          
1 42778U 17036P   22253.67753301  .00007403  00000+0  27213-3 0  9992
2 42778  97.1983 291.8828 0011235  33.3140 326.8804 15.28120892289919
RADFXSAT (FOX-1B)       
1 43017U 17073E   22253.66553686  .00003030  00000+0  23114-3 0  9991
2 43017  97.6625 144.3558 0245232 268.6943  88.6169 14.81957935259734
FOX-1D (AO-92)          
1 43137U 18004AC  22253.76810782  .00010239  00000+0  34661-3 0  9991
2 43137  97.3635 328.2105 0008684  66.2722 293.9429 15.30750234259391
DIWATA-2B               
1 43678U 18084H   22254.27985471  .00001309  00000+0  13390-3 0  9998
2 43678  97.9825  28.6130 0010055  10.7383 349.4047 14.92293071210656
ES'HAIL 2               
1 43700U 18090A   22252.24171133  .00000122  00000+0  00000+0 0  9990
2 43700   0.0255 167.2439 0002124  33.1048 260.7349  1.00268465 13870
FOX-1CLIFF (AO-95)      
1 43770U 18099N   22254.17044297  .00002216  00000+0  19843-3 0  9995
2 43770  97.6135 318.2821 0013752 353.2515   6.8520 14.96766328205832
ITASAT 1                
1 43786U 18099AE  22254.15666483  .00001359  00000+0  12331-3 0  9999
2 43786  97.6170 319.2324 0014359 346.9679  13.1170 14.96872162205871
JY1SAT (JO-97)          
1 43803U 18099AX  22254.14400452  .00002897  00000+0  25338-3 0  9999
2 43803  97.6138 319.0023 0013953 347.4284  12.6588 14.97446038205895
UWE-4                   
1 43880U 18111E   22253.68114352  .00003287  00000+0  27907-3 0  9996
2 43880  97.6587 158.4904 0012783  42.9203 317.3014 14.98524527202469
NEXUS (FO-99)           
1 43937U 19003F   22253.62788711  .00012380  00000+0  39555-3 0  9996
2 43937  97.1247 283.7390 0019051 203.0134 157.0258 15.32412217203011
PSAT2 (NO-104)          
1 44354U 19036R   22254.17346081  .00088537 -47096-5  67750-3 0  9995
2 44354  28.5245 300.3637 0200335 222.8517 135.6314 15.48438471177935
JAISAT-1                
1 44419U 19038F   22253.87342036  .00008801  00000+0  42902-3 0  9996
2 44419  97.6436 224.7873 0018390 189.6605 170.4277 15.18423821176016
DUCHIFAT-3              
1 44854U 19089C   22254.24514963  .00003920  00000+0  30281-3 0  9991
2 44854  36.9676 311.5596 0007782 204.6660 204.5722 15.01541770150832
CAS-6 (TIANQIN 1)       
1 44881U 19093C   22254.13662746  .00000525  00000+0  73137-4 0  9993
2 44881  97.8888 332.1030 0013575 267.9844  91.9818 14.81806439147460
RS-44 & BREEZE-KM R/B   
1 44909U 19096E   22253.80102576  .00000016  00000+0  10328-4 0  9998
2 44909  82.5252 173.5853 0218228 120.0128 242.2823 12.79714630126429
ORBITAL FACTORY 2 (OF-2)
1 45113U 19071C   22253.68605109  .00033867  00000+0  61142-3 0  9994
2 45113  51.6388 358.7980 0007787 121.2291 238.9462 15.49381715146575
HUSKYSAT-1 (HO-107)     
1 45119U 19071J   22253.56211787  .00029056  00000+0  55334-3 0  9993
2 45119  51.6392   0.1882 0008082 117.2863 242.8949 15.47928461146537
BY70-2                  
1 45857U 20042B   22254.13987175  .00006833  00000+0  89465-3 0  9997
2 45857  97.9516 330.1986 0010469 191.1329 168.9675 14.80663969118132
SALSAT                  
1 46495U 20068K   22253.81753812  .00001803  00000+0  13192-3 0  9993
2 46495  97.7334 195.1790 0016182 355.2265   4.8804 15.04810524107025
BY70-3                  
1 46839U 20079N   22254.20595282  .00027540  00000+0  57899-3 0  9994
2 46839  97.1919 325.3357 0005272  37.0333  48.7406 15.45276427103478
RADFXSAT-2 (AO-109)     
1 47311U 21002C   22253.72061146  .00008140  00000+0  31628-3 0  9997
2 47311  60.6860  40.9873 0031198  35.2180 325.0962 15.26440457 91472
UVSQ-SAT                
1 47438U 21006AB  22253.68502602  .00005408  00000+0  28058-3 0  9990
2 47438  97.4299 310.9564 0010983 347.3295  12.7661 15.16500131 90195
DIY-1 (ARDUIQUBE)       
1 47963U 21022AH  22253.70535090  .00015627  00000+0  82174-3 0  9994
2 47963  97.5225 154.1669 0015310 189.8570 170.2364 15.15651854 79854
XW-3 (CAS-9)            
1 50466U 21131B   22254.21329584  .00000182  00000+0  74184-4 0  9996
2 50466  98.5763 331.4102 0003561 244.0290 116.0531 14.38521479 37248
TEVEL-3                 
1 50988U 22002E   22254.23273714  .00007791  00000+0  41599-3 0  9994
2 50988  97.4748 319.8054 0010813 123.1716 309.4626 15.15347557 36401
TEVEL-8                 
1 50989U 22002F   22253.98614645  .00007892  00000+0  42199-3 0  9997
2 50989  97.4763 319.5902 0010910 122.2718   2.0347 15.15290897 36363
TEVEL-5                 
1 50998U 22002Q   22254.15632191  .00007952  00000+0  41841-3 0  9993
2 50998  97.4741 319.8727 0012283 120.2039 292.0346 15.15844470 36403
TEVEL-6                 
1 50999U 22002R   22254.15573164  .00007923  00000+0  41687-3 0  9994
2 50999  97.4740 319.8703 0012245 119.9767 292.2884 15.15849296 36408
TEVEL-1                 
1 51013U 22002AF  22254.23201806  .00007862  00000+0  42004-3 0  9998
2 51013  97.4751 319.7812 0010919 123.6833 285.2568 15.15321339 36404
TEVEL-7                 
1 51062U 22002CG  22254.23758860  .00007906  00000+0  42278-3 0  9991
2 51062  97.4763 319.8221 0010784 121.2748 283.9462 15.15287514 36409
TEVEL-4                 
1 51063U 22002CH  22254.23724186  .00007831  00000+0  41890-3 0  9992
2 51063  97.4756 319.8176 0010947 122.1104 275.9894 15.15276904 36409
TEVEL-2                 
1 51069U 22002CP  22254.22739791  .00007857  00000+0  41956-3 0  9996
2 51069  97.4749 319.7846 0010761 122.8813 272.8849 15.15340910 36403
YUZGU 9 (RS3S)          
1 53308U 98067TT  22254.13522290  .00049959  00000+0  77184-3 0  9993
2 53308  51.6392 270.1603 0000740 140.8303 219.2741 15.53600455  8060
YUZGU 7 (RS1S)          
1 53309U 98067TU  22254.13343998  .00051423  00000+0  79090-3 0  9997
2 53309  51.6387 270.1478 0000606 226.5213 133.5727 15.53711849  8015
YUZGU 11 (RS5S)         
1 53310U 98067TV  22254.13488297  .00050064  00000+0  77375-3 0  9995
2 53310  51.6392 270.1588 0000379 230.0535 130.0422 15.53589114  8044
YUZGU 12 (RS6S)         
1 53311U 98067TW  22254.12995128  .00053161  00000+0  81263-3 0  9993
2 53311  51.6387 270.1242 0001032 115.7948 244.3149 15.53866676  8068
TSIOLKOVSKY-RYAZAN 1 (*)
1 53312U 98067TX  22254.13169215  .00050018  00000+0  76857-3 0  9996
2 53312  51.6393 270.1363 0000784 238.0941 121.9973 15.53749787  8007
TSIOLKOVSKY-RYAZAN 2 (*)
1 53313U 98067TY  22254.13031598  .00050906  00000+0  78105-3 0  9993
2 53313  51.6392 270.1277 0000464 277.3450  82.7488 15.53782927  8050
YUZGU 10 (RS4S)         
1 53321U 98067TZ  22254.13561888  .00050849  00000+0  78471-3 0  9994
2 53321  51.6395 270.1652 0000463 160.0037 200.0972 15.53624006  8053
RS29S (SXC3-2110 CYCLO*)
1 53373U 22096D   22253.99954954  .00009823  00000+0  39816-3 0  9999
2 53373  97.4327 155.2226 0003706  77.3532 338.2827 15.24843217  4982
RS32S (SXC3-212 MONITO*)
1 53374U 22096E   22254.20778825  .00009959  00000+0  40225-3 0  9992
2 53374  97.4336 155.4340 0003622  70.9326  59.7187 15.24958287  5012
RS34S (SXC3-218 KUZBAS*)
1 53375U 22096F   22254.27114428  .00008540  00000+0  34570-3 0  9994
2 53375  97.4337 155.4970 0003587  73.1176  45.5002 15.24927942  5025
RS23S (SXC3-21 UTMN)    
1 53376U 22096G   22254.14276645  .00007627  00000+0  30890-3 0  9997
2 53376  97.4335 155.3718 0003501  69.7030  68.8427 15.24949380  5006
RS28S (SXC3-214 MIET-A*)
1 53377U 22096H   22254.13996308  .00008386  00000+0  33894-3 0  9992
2 53377  97.4335 155.3714 0003612  68.2880  58.2674 15.24987757  5000
RS26S (KAI-1)           
1 53378U 22096J   22254.00707002  .00007328  00000+0  29661-3 0  9992
2 53378  97.4324 155.2400 0003328  63.2837  57.3366 15.24986427  4988
RS19S (SXC3-219 ISOI)   
1 53381U 22096M   22253.99946830  .00008164  00000+0  32576-3 0  9995
2 53381  97.4331 155.2533 0004214   6.6179 120.9876 15.25426720  4981
RS21S (CUBESX-HSE-2)    
1 53383U 22096P   22254.13174309  .00008034  00000+0  32010-3 0  9997
2 53383  97.4335 155.3881 0004200   4.6529 135.8613 15.25480939  5006
RS30S (SXC3-217 SIREN)  
1 53384U 22096Q   22254.13102750  .00007543  00000+0  30070-3 0  9997
2 53384  97.4331 155.3864 0004258   2.3982 136.2253 15.25485122  5009
RS20S (GEOSCAN-EDELVEIS)
1 53385U 22096R   22254.12693405  .00010587  00000+0  41763-3 0  9992
2 53385  97.4324 155.3908 0004714   1.9246 134.8394 15.25727816  5038
RS33S (SXC3-215 VIZARD) 
1 53386U 22096S   22254.12236141  .00012183  00000+0  47600-3 0  9993
2 53386  97.4330 155.4003 0005551 359.1672 140.4625 15.26010323  5022
CUTE-1 (CO-55)          
1 27844U 03031E   22253.81910583  .00000201  00000+0  10964-3 0  9996
2 27844  98.6810 260.2235 0009176 209.1390 150.9277 14.22490139996006
CUBESAT XI-IV (CO-57)   
1 27848U 03031J   22254.01989192  .00000157  00000+0  90899-4 0  9991
2 27848  98.6854 260.9225 0008862 223.9859 136.0614 14.22042260995871
CUBESAT XI-V            
1 28895U 05043F   22253.79202434  .00000828  00000+0  16530-3 0  9994
2 28895  98.1178  23.9126 0015664 229.7463 130.2370 14.64460247900133
